[{"OBJECT_NAME":"STARLINK-34151","OBJECT_ID":"2025-110AA","EPOCH":"2026-03-09T06:28:33.128832","MEAN_MOTION":15.3020625,"ECCENTRICITY":0.00011328,"INCLINATION":53.1611,"RA_OF_ASC_NODE":29.032,"ARG_OF_PERICENTER":98.8965,"MEAN_ANOMALY":261.2164,"EPHEMERIS_TYPE":0,"CLASSIFICATION_TYPE":"U","NORAD_CAT_ID":64120,"ELEMENT_SET_NO":999,"REV_AT_EPOCH":4581,"BSTAR":0.0010903078,"MEAN_MOTION_DOT":0.00032078,"MEAN_MOTION_DDOT":0},{"OBJECT_NAME":"PUCP-SAT 1","OBJECT_ID":"2013-066AC","EPOCH":"2026-03-09T22:02:13.763904","MEAN_MOTION":15.29426022,"ECCENTRICITY":0.00136836,"INCLINATION":97.5787,"RA_OF_ASC_NODE":61.0032,"ARG_OF_PERICENTER":300.1183,"MEAN_ANOMALY":59.87,"EPHEMERIS_TYPE":0,"CLASSIFICATION_TYPE":"U","NORAD_CAT_ID":39442,"ELEMENT_SET_NO":999,"REV_AT_EPOCH":66907,"BSTAR":0.00088755185,"MEAN_MOTION_DOT":0.00025373,"MEAN_MOTION_DDOT":0}]
